NORAD_CAT_ID,OBJECT_NAME,OBJECT_TYPE,EPOCH,MEAN_MOTION,ECCENTRICITY,INCLINATION,RA_OF_ASC_NODE,ARG_OF_PERICENTER,MEAN_ANOMALY,BSTAR,MEAN_MOTION_DOT,MEAN_MOTION_DDOT,TLE_LINE0,TLE_LINE1,TLE_LINE2,SEMIMAJOR_AXIS,PERIOD,APOGEE,PERIGEE,DECAYED
55915.0,STARLINK-5859,PAYLOAD,2023-05-25 22:00:00,14.99308878,0.0003287,70.0015,353.2262,270.3145,59.1221,-0.001292,-0.00015871,0.0,0 STARLINK-5859,1 55915U 23037B   23145.91667824 -.00015871  00000-0 -12920-2 0  9998,2 55915  70.0015 353.2262 0003287 270.3145  59.1221 14.99308878 11228,6947.167,96.044,571.316,566.749,0.0
55915.0,STARLINK-5859,PAYLOAD,2023-05-26 00:00:02,14.99293624,0.000331,70.0014,353.0157,270.6442,148.5241,0.00091389,0.00011104,0.0,0 STARLINK-5859,1 55915U 23037B   23146.00002315  .00011104  00000-0  91389-3 0  9997,2 55915  70.0014 353.0157 0003310 270.6442 148.5241 14.99293624  1303,6947.215,96.045,571.379,566.78,0.0
55915.0,STARLINK-5859,PAYLOAD,2023-05-26 14:00:01,14.99305993,0.0003338,70.0018,351.5429,263.5757,63.146,0.00080576,9.781e-05,0.0,0 STARLINK-5859,1 55915U 23037B   23146.58334491  .00009781  00000-0  80576-3 0  9997,2 55915  70.0018 351.5429 0003338 263.5757  63.1460 14.99305993  1300,6947.176,96.044,571.36,566.722,0.0
55915.0,STARLINK-5859,PAYLOAD,2023-05-26 22:00:01,14.99285386,0.0003276,70.0016,350.7011,269.483,55.9558,0.0021098,0.00025807,0.0,0 STARLINK-5859,1 55915U 23037B   23146.91668981  .00025807  00000-0  21098-2 0  9998,2 55915  70.0016 350.7011 0003276 269.4830  55.9558 14.99285386 11372,6947.24,96.046,571.381,566.829,0.0
55915.0,STARLINK-5859,PAYLOAD,2023-05-27 20:34:17,14.99303722,0.0003047,69.9997,348.3268,269.9568,90.1242,-2.6418e-05,-4.17e-06,0.0,0 STARLINK-5859,1 55915U 23037B   23147.85714459 -.00000417  00000-0 -26418-4 0  9999,2 55915  69.9997 348.3268 0003047 269.9568  90.1242 14.99303722 11515,6947.183,96.045,571.165,566.932,0.0
55915.0,STARLINK-5859,PAYLOAD,2023-05-27 23:46:25,14.99304681,0.0003031,69.9996,347.9895,269.3925,90.6888,-1.361e-05,-2.6e-06,0.0,0 STARLINK-5859,1 55915U 23037B   23147.99057689 -.00000260  00000-0 -13610-4 0  9995,2 55915  69.9996 347.9895 0003031 269.3925  90.6888 14.99304681 11885,6947.18,96.045,571.151,566.94,0.0
55915.0,STARLINK-5859,PAYLOAD,2023-05-28 20:35:22,14.99299748,0.0003079,69.9994,345.7993,265.2173,94.8635,3.4038e-05,3.23e-06,0.0,0 STARLINK-5859,1 55915U 23037B   23148.85789604  .00000323  00000-0  34038-4 0  9995,2 55915  69.9994 345.7993 0003079 265.2173  94.8635 14.99299748 12019,6947.196,96.045,571.2,566.922,0.0
55915.0,STARLINK-5859,PAYLOAD,2023-05-28 23:47:30,14.99300936,0.0003067,69.9995,345.4623,264.8502,95.2307,4.5007e-05,4.57e-06,0.0,0 STARLINK-5859,1 55915U 23037B   23148.99132850  .00000457  00000-0  45007-4 0  9991,2 55915  69.9995 345.4623 0003067 264.8502  95.2307 14.99300936 11680,6947.192,96.045,571.188,566.926,0.0
55915.0,STARLINK-5859,PAYLOAD,2023-05-29 14:12:10,14.9929921,0.0003034,69.9996,343.9457,269.3875,90.6937,-4.2411e-05,-6.13e-06,0.0,0 STARLINK-5859,1 55915U 23037B   23149.59178366 -.00000613  00000-0 -42411-4 0  9992,2 55915  69.9996 343.9457 0003034 269.3875  90.6937 14.99299210 12126,6947.197,96.045,571.17,566.955,0.0
55915.0,STARLINK-5859,PAYLOAD,2023-05-29 20:36:27,14.99298138,0.0003068,69.9996,343.2722,267.4937,92.5871,-4.9474e-05,-6.99e-06,0.0,0 STARLINK-5859,1 55915U 23037B   23149.85865175 -.00000699  00000-0 -49474-4 0  9992,2 55915  69.9996 343.2722 0003068 267.4937  92.5871 14.99298138 12169,6947.201,96.045,571.197,566.934,0.0
55915.0,STARLINK-5859,PAYLOAD,2023-05-29 23:48:36,14.99298446,0.0003066,69.9996,342.9352,267.6644,92.4164,-4.4488e-05,-6.38e-06,0.0,0 STARLINK-5859,1 55915U 23037B   23149.99208515 -.00000638  00000-0 -44488-4 0  9999,2 55915  69.9996 342.9352 0003066 267.6644  92.4164 14.99298446 11838,6947.2,96.045,571.195,566.935,0.0
55915.0,STARLINK-5859,PAYLOAD,2023-05-30 06:12:53,14.99299252,0.0003127,69.9996,342.2612,269.2038,90.8764,-2.5294e-05,-4.03e-06,0.0,0 STARLINK-5859,1 55915U 23037B   23150.25895136 -.00000403  00000-0 -25294-4 0  9995,2 55915  69.9996 342.2612 0003127 269.2038  90.8764 14.99299252 12221,6947.197,96.045,571.235,566.89,0.0
55915.0,STARLINK-5859,PAYLOAD,2023-05-30 20:37:32,14.99300381,0.0003196,69.9994,340.745,268.7122,91.3672,5.7123e-05,6.05e-06,0.0,0 STARLINK-5859,1 55915U 23037B   23150.85939925  .00000605  00000-0  57123-4 0  9994,2 55915  69.9994 340.7450 0003196 268.7122  91.3672 14.99300381 12316,6947.194,96.045,571.279,566.838,0.0
55915.0,STARLINK-5859,PAYLOAD,2023-05-31 06:13:58,14.99301794,0.000316,69.9994,339.7341,268.7017,91.3781,-6.0997e-06,-1.69e-06,0.0,0 STARLINK-5859,1 55915U 23037B   23151.25970040 -.00000169  00000-0 -60997-5 0  9993,2 55915  69.9994 339.7341 0003160 268.7017  91.3781 14.99301794 12025,6947.189,96.045,571.25,566.859,0.0
55915.0,STARLINK-5859,PAYLOAD,2023-05-31 14:14:20,14.99296207,0.0003193,69.9994,338.8918,269.2008,90.8786,1.3713e-05,7.4e-07,0.0,0 STARLINK-5859,1 55915U 23037B   23151.59328764  .00000074  00000-0  13713-4 0  9996,2 55915  69.9994 338.8918 0003193 269.2008  90.8786 14.99296207 12422,6947.207,96.045,571.29,566.853,0.0
55915.0,STARLINK-5859,PAYLOAD,2023-05-31 20:38:37,14.99299989,0.0003181,69.9993,338.2179,269.1883,90.8912,3.2935e-05,3.09e-06,0.0,0 STARLINK-5859,1 55915U 23037B   23151.86015226  .00000309  00000-0  32935-4 0  9990,2 55915  69.9993 338.2179 0003181 269.1883  90.8912 14.99299989 12466,6947.195,96.045,571.27,566.85,0.0
55915.0,STARLINK-5859,PAYLOAD,2023-06-01 06:15:03,14.99302178,0.0003255,69.9993,337.2068,268.7508,91.3278,-4.4285e-05,-6.36e-06,0.0,0 STARLINK-5859,1 55915U 23037B   23152.26045338 -.00000636  00000-0 -44285-4 0  9998,2 55915  69.9993 337.2068 0003255 268.7508  91.3278 14.99302178 12526,6947.188,96.045,571.314,566.792,0.0
55915.0,STARLINK-5859,PAYLOAD,2023-06-02 12:40:25,14.99298513,0.0003104,69.9989,334.0056,269.666,90.4144,1.6508e-08,-9.4e-07,0.0,0 STARLINK-5859,1 55915U 23037B   23153.52807294 -.00000094  00000-0  16508-7 0  9992,2 55915  69.9989 334.0056 0003104 269.6660  90.4144 14.99298513 12715,6947.199,96.045,571.221,566.908,0.0
55915.0,STARLINK-5859,PAYLOAD,2023-06-02 19:05:08,14.98986164,0.0003008,69.9989,333.3326,268.7634,91.3181,-0.0033504,-0.00040522,0.0,0 STARLINK-5859,1 55915U 23037B   23153.79523483 -.00040522  00000-0 -33504-2 0  9997,2 55915  69.9989 333.3326 0003008 268.7634  91.3181 14.98986164 12403,6948.164,96.065,572.12,567.939,0.0
55915.0,STARLINK-5859,PAYLOAD,2023-06-02 20:41:18,14.98919078,0.0002877,69.9987,333.1644,273.6669,86.4161,-0.0040331,-0.00048619,0.0,0 STARLINK-5859,1 55915U 23037B   23153.86202269 -.00048619  00000-0 -40331-2 0  9992,2 55915  69.9987 333.1644 0002877 273.6669  86.4161 14.98919078 12760,6948.372,96.069,572.236,568.238,0.0
55915.0,STARLINK-5859,PAYLOAD,2023-06-02 22:17:25,14.98900288,0.00029,69.9986,332.9957,274.7213,85.3615,-0.0041742,-0.0005028,0.0,0 STARLINK-5859,1 55915U 23037B   23153.92876901 -.00050280  00000-0 -41742-2 0  9993,2 55915  69.9986 332.9957 0002900 274.7213  85.3615 14.98900288 12425,6948.43,96.07,572.31,568.28,0.0
55915.0,STARLINK-5859,PAYLOAD,2023-06-03 11:06:25,14.98739526,0.0002747,69.9988,331.6492,268.5882,91.4963,-0.0052747,-0.00063131,0.0,0 STARLINK-5859,1 55915U 23037B   23154.46279194 -.00063131  00000-0 -52747-2 0  9990,2 55915  69.9988 331.6492 0002747 268.5882  91.4963 14.98739526 12507,6948.927,96.081,572.701,568.883,0.0
55915.0,STARLINK-5859,PAYLOAD,2023-06-03 14:18:38,14.98723862,0.0002921,69.999,331.3124,266.2248,93.8578,-0.0052524,-0.00062843,0.0,0 STARLINK-5859,1 55915U 23037B   23154.59628132 -.00062843  00000-0 -52524-2 0  9996,2 55915  69.9990 331.3124 0002921 266.2248  93.8578 14.98723862 12878,6948.975,96.082,572.87,568.81,0.0
55915.0,STARLINK-5859,PAYLOAD,2023-06-03 19:06:59,14.98703322,0.0003039,69.9991,330.8076,266.4627,93.6185,-0.0051613,-0.00061732,0.0,0 STARLINK-5859,1 55915U 23037B   23154.79651624 -.00061732  00000-0 -51613-2 0  9994,2 55915  69.9991 330.8076 0003039 266.4627  93.6185 14.98703322 12559,6949.039,96.083,573.015,568.792,0.0
55915.0,STARLINK-5859,PAYLOAD,2023-06-03 20:43:05,14.98696888,0.0003019,69.9994,330.6395,266.2492,93.8322,-0.0051223,-0.0006126,0.0,0 STARLINK-5859,1 55915U 23037B   23154.86326179 -.00061260  00000-0 -51223-2 0  9999,2 55915  69.9994 330.6395 0003019 266.2492  93.8322 14.98696888 12913,6949.059,96.083,573.021,568.826,0.0
55915.0,STARLINK-5859,PAYLOAD,2023-06-04 04:43:40,14.98664541,0.0003026,69.9992,329.7974,269.1395,90.9417,-0.00492,-0.00058815,0.0,0 STARLINK-5859,1 55915U 23037B   23155.19699711 -.00058815  00000-0 -49200-2 0  9995,2 55915  69.9992 329.7974 0003026 269.1395  90.9417 14.98664541 12616,6949.159,96.086,573.126,568.921,0.0
55915.0,STARLINK-5859,PAYLOAD,2023-06-04 14:20:23,14.98579683,0.0003895,69.9993,328.7871,283.7176,76.355,-0.0038322,-0.00045819,0.0,0 STARLINK-5859,1 55915U 23037B   23155.59749534 -.00045819  00000-0 -38322-2 0  9991,2 55915  69.9993 328.7871 0003895 283.7176  76.3550 14.98579683 13029,6949.421,96.091,573.993,568.579,0.0
55915.0,STARLINK-5859,PAYLOAD,2023-06-04 19:08:45,14.98566772,0.0002854,69.9992,328.2819,262.8427,97.2408,-0.0037386,-0.00044691,0.0,0 STARLINK-5859,1 55915U 23037B   23155.79775211 -.00044691  00000-0 -37386-2 0  9990,2 55915  69.9992 328.2819 0002854 262.8427  97.2408 14.98566772 12709,6949.461,96.092,573.309,569.342,0.0
55915.0,STARLINK-5859,PAYLOAD,2023-06-04 20:44:53,14.98563853,0.0002945,69.9993,328.1137,266.5602,93.522,-0.0037155,-0.00044414,0.0,0 STARLINK-5859,1 55915U 23037B   23155.86450437 -.00044414  00000-0 -37155-2 0  9995,2 55915  69.9993 328.1137 0002945 266.5602  93.5220 14.98563853 13067,6949.47,96.092,573.381,569.288,0.0
55915.0,STARLINK-5859,PAYLOAD,2023-06-05 03:09:24,14.98486375,0.0003246,69.9991,327.4397,270.0835,89.9952,-0.0025882,-0.00030964,0.0,0 STARLINK-5859,1 55915U 23037B   23156.13153716 -.00030964  00000-0 -25882-2 0  9995,2 55915  69.9991 327.4397 0003246 270.0835  89.9952 14.98486375 12757,6949.709,96.097,573.83,569.318,0.0
